0 PEGASUS DEB
1 25448U 94029AEC 13282.19500824  .00076970  00000-0  12407-1 0   762
2 25448 082.1972 349.9034 0394437 124.3278 321.2216 14.30475856931477
0 PEGASUS DEB
1 25448U 94029AEC 13283.16455117  .00063350  00000-0  10216-1 0   779
2 25448 082.1973 349.0303 0393791 121.4117 274.3187 14.30612932931619
0 PEGASUS DEB
1 25448U 94029AEC 13283.86761814  .00068069  00000-0  10971-1 0   781
2 25448 082.1973 348.3974 0393447 119.3023 295.3320 14.30674964931711
0 PEGASUS DEB
1 25448U 94029AEC 13284.15238434  .00055152  00000-0  89027-2 0   790
2 25448 082.1976 348.1409 0393204 118.4502 322.0101 14.30701028931759
0 PEGASUS DEB
1 25448U 94029AEC 13286.75030579  .00040043  00000-0  64689-2 0   811
2 25448 082.1982 345.8014 0392085 110.6478 023.6525 14.30903495932122
0 PEGASUS DEB
1 25448U 94029AEC 13287.86649425  .00057722  00000-0  93193-2 0   825
2 25448 082.1984 344.7962 0391296 107.2869 013.6143 14.31003006932285
0 PEGASUS DEB
1 25448U 94029AEC 13288.20482169  .00080131  00000-0  12913-1 0   835
2 25448 082.1983 344.4916 0390872 106.2700 316.5941 14.31068345932336
0 PEGASUS DEB
1 25448U 94029AEC 13288.77509130  .00064635  00000-0  10425-1 0   843
2 25448 082.1981 343.9781 0390556 104.5596 014.6245 14.31140384932417
0 PEGASUS DEB
1 25448U 94029AEC 13289.53989315  .00059389  00000-0  95785-2 0   859
2 25448 082.1979 343.2889 0390235 102.2675 355.0590 14.31212150932521
0 PEGASUS DEB
1 25448U 94029AEC 13290.16678780  .00053506  00000-0  86315-2 0   866
2 25448 082.1976 342.7240 0390011 100.3827 345.1073 14.31260361932616
0 PEGASUS DEB
1 25448U 94029AEC 13291.21096687  .00050409  00000-0  81343-2 0   879
2 25448 082.1974 341.7833 0389380 097.2447 325.4858 14.31363911932763
0 PEGASUS DEB
1 25448U 94029AEC 13291.85121763  .00052008  00000-0  83910-2 0   883
2 25448 082.1972 341.2061 0389112 095.3194 024.7070 14.31409546932850
0 PEGASUS DEB
1 25448U 94029AEC 13292.75944443  .00045406  00000-0  73280-2 0   895
2 25448 082.1970 340.3872 0388717 092.5840 025.0056 14.31484223932982
0 PEGASUS DEB
1 25448U 94029AEC 13293.86570353  .00051079  00000-0  82443-2 0   909
2 25448 082.1969 339.3897 0388154 089.2538 326.1192 14.31557367933142
0 PEGASUS DEB
1 25448U 94029AEC 13295.48792323  .00060550  00000-0  97597-2 0   913
2 25448 082.1970 337.9267 0387520 084.3807 046.8285 14.31682012933370
